[{"OBJECT_NAME":"ONEWEB-0713","OBJECT_ID":"2023-004AM","EPOCH":"2026-03-09T22:22:11.240256","MEAN_MOTION":13.11414754,"ECCENTRICITY":0.00017822,"INCLINATION":87.8866,"RA_OF_ASC_NODE":40.7984,"ARG_OF_PERICENTER":69.8554,"MEAN_ANOMALY":290.2766,"EPHEMERIS_TYPE":0,"CLASSIFICATION_TYPE":"U","NORAD_CAT_ID":55175,"ELEMENT_SET_NO":999,"REV_AT_EPOCH":15281,"BSTAR":-0.00071330099,"MEAN_MOTION_DOT":-2.4e-6,"MEAN_MOTION_DDOT":0},{"OBJECT_NAME":"CZ-4B DEB","OBJECT_ID":"1999-057R","EPOCH":"2026-03-09T23:01:49.621440","MEAN_MOTION":13.611471,"ECCENTRICITY":0.04369436,"INCLINATION":99.0075,"RA_OF_ASC_NODE":261.6771,"ARG_OF_PERICENTER":49.1076,"MEAN_ANOMALY":314.7069,"EPHEMERIS_TYPE":0,"CLASSIFICATION_TYPE":"U","NORAD_CAT_ID":26129,"ELEMENT_SET_NO":999,"REV_AT_EPOCH":28473,"BSTAR":0.00063191409,"MEAN_MOTION_DOT":8.71e-6,"MEAN_MOTION_DDOT":0}]
